STARLINK-1850_new
1 17138C 20088S   21326.12641882  .00001005  00000-0  67319-4 0  3267
2 17138  53.0535 138.1597 0001776  79.1578 314.1682 15.06389587    16
STARLINK-1850_old
1 27138C 20088S   21325.13062244  .00001073  00000-0  71935-4 0  3259
2 27138  53.0536 142.6298 0001795  77.0341 313.0990 15.06387352    19
